start=new Date('2022-12-17T00:00:00.000Z').valueOf();
sats=[{"EPHEMERIS_TYPE":"0","OBJECT_TYPE":"PAYLOAD","MEAN_MOTION_DOT":"0.00000363","SEMIMAJOR_AXIS":"6925.364","FILE":"3705029","REF_FRAME":"TEME","PERIAPSIS":"545.983","OBJECT_NAME":"STARLINK-2428","ARG_OF_PERICENTER":"43.5986","CENTER_NAME":"EARTH","REV_AT_EPOCH":"9474","TLE_LINE2":"2 48099  53.0553  63.3895 0001799  43.5986 316.5145 15.06395037 94746","OBJECT_ID":"2021-027H","GP_ID":"220662050","MEAN_MOTION_DDOT":"0.0000000000000","ELEMENT_SET_NO":"999","CLASSIFICATION_TYPE":"U","RA_OF_ASC_NODE":"63.3895","LAUNCH_DATE":"2021-04-07","MEAN_ELEMENT_THEORY":"SGP4","APOAPSIS":"548.475","INCLINATION":"53.0553","PERIOD":"95.592","DECAY_DATE":null,"ECCENTRICITY":"0.00017990","BSTAR":"0.00004329800000","TLE_LINE1":"1 48099U 21027H   22350.90792410  .00000363  00000-0  43298-4 0  9998","EPOCH":"2022-12-16T21:47:24.642240","RCS_SIZE":"LARGE","MEAN_ANOMALY":"316.5145","SITE":"AFETR","NORAD_CAT_ID":"48099","TIME_SYSTEM":"UTC","COUNTRY_CODE":"US","MEAN_MOTION":"15.06395037"},{"APOAPSIS":"548.833","LAUNCH_DATE":"2021-04-07","MEAN_ELEMENT_THEORY":"SGP4","INCLINATION":"53.0561","DECAY_DATE":null,"PERIOD":"95.592","TLE_LINE1":"1 48100U 21027J   22350.53748339 -.00000793  00000-0 -34310-4 0  9995","BSTAR":"-0.00003431000000","ECCENTRICITY":"0.00023390","NORAD_CAT_ID":"48100","SITE":"AFETR","MEAN_ANOMALY":"327.1854","TIME_SYSTEM":"UTC","RCS_SIZE":"LARGE","EPOCH":"2022-12-16T12:53:58.564896","COUNTRY_CODE":"US","MEAN_MOTION":"15.06400219","EPHEMERIS_TYPE":"0","SEMIMAJOR_AXIS":"6925.348","MEAN_MOTION_DOT":"-0.00000793","OBJECT_TYPE":"PAYLOAD","REF_FRAME":"TEME","FILE":"3702730","PERIAPSIS":"545.593","ARG_OF_PERICENTER":"32.9280","OBJECT_NAME":"STARLINK-2430","OBJECT_ID":"2021-027J","GP_ID":"220581920","TLE_LINE2":"2 48100  53.0561  45.0398 0002339  32.9280 327.1854 15.06400219 94972","REV_AT_EPOCH":"9497","CENTER_NAME":"EARTH","CLASSIFICATION_TYPE":"U","MEAN_MOTION_DDOT":"0.0000000000000","ELEMENT_SET_NO":"999","RA_OF_ASC_NODE":"45.0398"},{"DECAY_DATE":null,"PERIOD":"95.592","TLE_LINE1":"1 48101U 21027K   22350.91895821  .00004514  00000-0  32174-3 0  9995","BSTAR":"0.00032174000000","ECCENTRICITY":"0.00018720","APOAPSIS":"548.500","LAUNCH_DATE":"2021-04-07","MEAN_ELEMENT_THEORY":"SGP4","INCLINATION":"53.0540","COUNTRY_CODE":"US","MEAN_MOTION":"15.06403355","TIME_SYSTEM":"UTC","SITE":"AFETR","NORAD_CAT_ID":"48101","MEAN_ANOMALY":"309.0425","RCS_SIZE":"LARGE","EPOCH":"2022-12-16T22:03:17.989344","REF_FRAME":"TEME","FILE":"3705029","PERIAPSIS":"545.907","EPHEMERIS_TYPE":"0","SEMIMAJOR_AXIS":"6925.338","OBJECT_TYPE":"PAYLOAD","MEAN_MOTION_DOT":"0.00004514","CLASSIFICATION_TYPE":"U","MEAN_MOTION_DDOT":"0.0000000000000","ELEMENT_SET_NO":"999","RA_OF_ASC_NODE":"53.3333","OBJECT_NAME":"STARLINK-2436","ARG_OF_PERICENTER":"51.0731","GP_ID":"220661552","OBJECT_ID":"2021-027K","TLE_LINE2":"2 48101  53.0540  53.3333 0001872  51.0731 309.0425 15.06403355 94893","REV_AT_EPOCH":"9489","CENTER_NAME":"EARTH"},{"TLE_LINE1":"1 48102U 21027L   22350.62963100  .00000235  00000-0  34665-4 0  9994","BSTAR":"0.00003466500000","ECCENTRICITY":"0.00021010","DECAY_DATE":null,"PERIOD":"95.592","INCLINATION":"53.0538","APOAPSIS":"548.676","MEAN_ELEMENT_THEORY":"SGP4","LAUNCH_DATE":"2021-04-07","MEAN_MOTION":"15.06397680","COUNTRY_CODE":"US","SITE":"AFETR","TIME_SYSTEM":"UTC","NORAD_CAT_ID":"48102","MEAN_ANOMALY":"318.3024","RCS_SIZE":"LARGE","EPOCH":"2022-12-16T15:06:40.118400","PERIAPSIS":"545.766","REF_FRAME":"TEME","FILE":"3705029","SEMIMAJOR_AXIS":"6925.356","OBJECT_TYPE":"PAYLOAD","MEAN_MOTION_DOT":"0.00000235","EPHEMERIS_TYPE":"0","RA_OF_ASC_NODE":"44.6245","CLASSIFICATION_TYPE":"U","ELEMENT_SET_NO":"999","MEAN_MOTION_DDOT":"0.0000000000000","GP_ID":"220661297","OBJECT_ID":"2021-027L","TLE_LINE2":"2 48102  53.0538  44.6245 0002101  41.8125 318.3024 15.06397680 94987","REV_AT_EPOCH":"9498","CENTER_NAME":"EARTH","ARG_OF_PERICENTER":"41.8125","OBJECT_NAME":"STARLINK-2437"},{"MEAN_MOTION":"15.06400720","COUNTRY_CODE":"US","EPOCH":"2022-12-16T15:21:14.146848","SITE":"AFETR","MEAN_ANOMALY":"316.0976","NORAD_CAT_ID":"48103","TIME_SYSTEM":"UTC","RCS_SIZE":"MEDIUM","BSTAR":"-0.00002581700000","ECCENTRICITY":"0.00022200","TLE_LINE1":"1 48103U 21027M   22350.63974707 -.00000666  00000-0 -25817-4 0  9990","PERIOD":"95.592","DECAY_DATE":null,"INCLINATION":"53.0557","LAUNCH_DATE":"2021-04-07","MEAN_ELEMENT_THEORY":"SGP4","APOAPSIS":"548.749","RA_OF_ASC_NODE":"44.6171","CLASSIFICATION_TYPE":"U","ELEMENT_SET_NO":"999","MEAN_MOTION_DDOT":"0.0000000000000","REV_AT_EPOCH":"9498","CENTER_NAME":"EARTH","GP_ID":"220662551","OBJECT_ID":"2021-027M","TLE_LINE2":"2 48103  53.0557  44.6171 0002220  44.0189 316.0976 15.06400720 94985","ARG_OF_PERICENTER":"44.0189","OBJECT_NAME":"STARLINK-2438","PERIAPSIS":"545.674","FILE":"3705029","REF_FRAME":"TEME","SEMIMAJOR_AXIS":"6925.346","OBJECT_TYPE":"PAYLOAD","MEAN_MOTION_DOT":"-0.00000666","EPHEMERIS_TYPE":"0"},{"INCLINATION":"53.0553","LAUNCH_DATE":"2021-04-07","MEAN_ELEMENT_THEORY":"SGP4","APOAPSIS":"548.215","BSTAR":"0.00006432100000","ECCENTRICITY":"0.00014560","TLE_LINE1":"1 48104U 21027N   22350.64945111  .00000677  00000-0  64321-4 0  9992","PERIOD":"95.592","DECAY_DATE":null,"EPOCH":"2022-12-16T15:35:12.575904","SITE":"AFETR","NORAD_CAT_ID":"48104","MEAN_ANOMALY":"289.4043","TIME_SYSTEM":"UTC","RCS_SIZE":"LARGE","MEAN_MOTION":"15.06402129","COUNTRY_CODE":"US","SEMIMAJOR_AXIS":"6925.342","OBJECT_TYPE":"PAYLOAD","MEAN_MOTION_DOT":"0.00000677","EPHEMERIS_TYPE":"0","PERIAPSIS":"546.199","FILE":"3705029","REF_FRAME":"TEME","REV_AT_EPOCH":"9492","CENTER_NAME":"EARTH","OBJECT_ID":"2021-027N","GP_ID":"220662286","TLE_LINE2":"2 48104  53.0553  49.5345 0001456  70.7104 289.4043 15.06402129 94929","ARG_OF_PERICENTER":"70.7104","OBJECT_NAME":"STARLINK-2439","RA_OF_ASC_NODE":"49.5345","CLASSIFICATION_TYPE":"U","ELEMENT_SET_NO":"999","MEAN_MOTION_DDOT":"0.0000000000000"},{"EPHEMERIS_TYPE":"0","SEMIMAJOR_AXIS":"6925.363","OBJECT_TYPE":"PAYLOAD","MEAN_MOTION_DOT":"0.00001081","FILE":"3705029","REF_FRAME":"TEME","PERIAPSIS":"545.914","OBJECT_NAME":"STARLINK-2440","ARG_OF_PERICENTER":"48.4433","REV_AT_EPOCH":"9570","CENTER_NAME":"EARTH","GP_ID":"220661052","OBJECT_ID":"2021-027P","TLE_LINE2":"2 48105  53.0546 354.0634 0001897  48.4433 311.6719 15.06395332 95705","CLASSIFICATION_TYPE":"U","MEAN_MOTION_DDOT":"0.0000000000000","ELEMENT_SET_NO":"999","RA_OF_ASC_NODE":"354.0634","MEAN_ELEMENT_THEORY":"SGP4","LAUNCH_DATE":"2021-04-07","APOAPSIS":"548.542","INCLINATION":"53.0546","PERIOD":"95.592","DECAY_DATE":null,"BSTAR":"0.00009145000000","ECCENTRICITY":"0.00018970","TLE_LINE1":"1 48105U 21027P   22350.75587752  .00001081  00000-0  91450-4 0  9991","EPOCH":"2022-12-16T18:08:27.817728","SITE":"AFETR","MEAN_ANOMALY":"311.6719","NORAD_CAT_ID":"48105","TIME_SYSTEM":"UTC","RCS_SIZE":"LARGE","COUNTRY_CODE":"US","MEAN_MOTION":"15.06395332"},{"PERIAPSIS":"546.020","REF_FRAME":"TEME","FILE":"3705029","OBJECT_TYPE":"PAYLOAD","MEAN_MOTION_DOT":"-0.00002002","SEMIMAJOR_AXIS":"6925.351","EPHEMERIS_TYPE":"0","RA_OF_ASC_NODE":"44.4481","ELEMENT_SET_NO":"999","MEAN_MOTION_DDOT":"0.0000000000000","CLASSIFICATION_TYPE":"U","TLE_LINE2":"2 48106  53.0526  44.4481 0001728  63.8307 296.2860 15.06399119 94990","OBJECT_ID":"2021-027Q","GP_ID":"220661798","CENTER_NAME":"EARTH","REV_AT_EPOCH":"9499","OBJECT_NAME":"STARLINK-2442","ARG_OF_PERICENTER":"63.8307","TLE_LINE1":"1 48106U 21027Q   22350.67386946 -.00002002  00000-0 -11553-3 0  9996","ECCENTRICITY":"0.00017280","BSTAR":"-0.00011553000000","DECAY_DATE":null,"PERIOD":"95.592","INCLINATION":"53.0526","APOAPSIS":"548.413","LAUNCH_DATE":"2021-04-07","MEAN_ELEMENT_THEORY":"SGP4","MEAN_MOTION":"15.06399119","COUNTRY_CODE":"US","RCS_SIZE":"LARGE","TIME_SYSTEM":"UTC","SITE":"AFETR","NORAD_CAT_ID":"48106","MEAN_ANOMALY":"296.2860","EPOCH":"2022-12-16T16:10:22.321344"},{"FILE":"3705029","REF_FRAME":"TEME","PERIAPSIS":"545.911","EPHEMERIS_TYPE":"0","MEAN_MOTION_DOT":"0.00001762","OBJECT_TYPE":"PAYLOAD","SEMIMAJOR_AXIS":"6925.354","ELEMENT_SET_NO":"999","MEAN_MOTION_DDOT":"0.0000000000000","CLASSIFICATION_TYPE":"U","RA_OF_ASC_NODE":"44.3699","OBJECT_NAME":"STARLINK-2443","ARG_OF_PERICENTER":"51.0446","CENTER_NAME":"EARTH","REV_AT_EPOCH":"9499","TLE_LINE2":"2 48107  53.0557  44.3699 0001888  51.0446 309.0711 15.06398252 94990","OBJECT_ID":"2021-027R","GP_ID":"220662051","PERIOD":"95.592","DECAY_DATE":null,"ECCENTRICITY":"0.00018880","BSTAR":"0.00013715000000","TLE_LINE1":"1 48107U 21027R   22350.68860712  .00001762  00000-0  13715-3 0  9998","LAUNCH_DATE":"2021-04-07","MEAN_ELEMENT_THEORY":"SGP4","APOAPSIS":"548.526","INCLINATION":"53.0557","COUNTRY_CODE":"US","MEAN_MOTION":"15.06398252","EPOCH":"2022-12-16T16:31:35.655168","RCS_SIZE":"LARGE","MEAN_ANOMALY":"309.0711","SITE":"AFETR","NORAD_CAT_ID":"48107","TIME_SYSTEM":"UTC"},{"ELEMENT_SET_NO":"999","MEAN_MOTION_DDOT":"0.0000000000000","CLASSIFICATION_TYPE":"U","RA_OF_ASC_NODE":"54.4826","OBJECT_NAME":"STARLINK-2444","ARG_OF_PERICENTER":"41.3413","CENTER_NAME":"EARTH","REV_AT_EPOCH":"9484","TLE_LINE2":"2 48108  53.0548  54.4826 0002022  41.3413 318.7729 15.06390766 94844","GP_ID":"220662787","OBJECT_ID":"2021-027S","FILE":"3705029","REF_FRAME":"TEME","PERIAPSIS":"545.842","EPHEMERIS_TYPE":"0","MEAN_MOTION_DOT":"-0.00001574","OBJECT_TYPE":"PAYLOAD","SEMIMAJOR_AXIS":"6925.377","COUNTRY_CODE":"US","MEAN_MOTION":"15.06390766","EPOCH":"2022-12-16T15:53:07.321056","RCS_SIZE":"LARGE","MEAN_ANOMALY":"318.7729","SITE":"AFETR","NORAD_CAT_ID":"48108","TIME_SYSTEM":"UTC","PERIOD":"95.593","DECAY_DATE":null,"ECCENTRICITY":"0.00020220","BSTAR":"-0.00008682400000","TLE_LINE1":"1 48108U 21027S   22350.66189029 -.00001574  00000-0 -86824-4 0  9997","MEAN_ELEMENT_THEORY":"SGP4","LAUNCH_DATE":"2021-04-07","APOAPSIS":"548.642","INCLINATION":"53.0548"}];
